NORAD_CAT_ID,OBJECT_NAME,OBJECT_TYPE,EPOCH,MEAN_MOTION,ECCENTRICITY,INCLINATION,RA_OF_ASC_NODE,ARG_OF_PERICENTER,MEAN_ANOMALY,BSTAR,MEAN_MOTION_DOT,MEAN_MOTION_DDOT,TLE_LINE0,TLE_LINE1,TLE_LINE2,SEMIMAJOR_AXIS,PERIOD,APOGEE,PERIGEE,DECAYED
53016.0,STARLINK-4283,PAYLOAD,2022-11-12 18:37:01,15.08839263,0.0002074,53.2182,129.1116,46.6708,313.4457,3.4014e-05,2.53e-06,0.0,0 STARLINK-4283,1 53016U 22076AG  22316.77570736  .00000253  00000-0  34014-4 0  9994,2 53016  53.2182 129.1116 0002074  46.6708 313.4457 15.08839263 20344,6917.8830000000025,95.438,541.182,538.313,0.0
53016.0,STARLINK-4283,PAYLOAD,2022-11-13 12:06:15,15.08842765,0.0002057,53.2173,125.8388,46.2025,313.9137,-1.259e-05,-4.89e-06,0.0,0 STARLINK-4283,1 53016U 22076AG  22317.50434548 -.00000489  00000-0 -12590-4 0  9994,2 53016  53.2173 125.8388 0002057  46.2025 313.9137 15.08842765 19986,6917.871999999999,95.437,541.16,538.314,0.0
53016.0,STARLINK-4283,PAYLOAD,2022-11-13 18:27:48,15.08836286,0.0002045,53.2185,124.6504,45.4128,314.7031,-7.095e-05,-1.417e-05,0.0,0 STARLINK-4283,1 53016U 22076AG  22317.76931110 -.00001417  00000-0 -70950-4 0  9995,2 53016  53.2185 124.6504 0002045  45.4128 314.7031 15.08836286 20028,6917.892,95.438,541.1709999999998,538.342,0.0
53016.0,STARLINK-4283,PAYLOAD,2022-11-13 21:38:34,15.08835699,0.0001986,53.2187,124.0561,46.1433,313.9723,-6.9948e-05,-1.401e-05,0.0,0 STARLINK-4283,1 53016U 22076AG  22317.90179164 -.00001401  00000-0 -69948-4 0  9992,2 53016  53.2187 124.0561 0001986  46.1433 313.9723 15.08835699 20517,6917.894,95.438,541.132,538.385,0.0
53016.0,STARLINK-4283,PAYLOAD,2022-11-14 11:57:02,15.0883487,0.0001974,53.2188,121.38,43.19300000000001,316.9216,8.9647e-06,-1.46e-06,0.0,0 STARLINK-4283,1 53016U 22076AG  22318.49795004 -.00000146  00000-0  89647-5 0  9997,2 53016  53.2188 121.3800 0001974  43.1930 316.9216 15.08834870 20138,6917.896,95.438,541.127,538.395,0.0
53016.0,STARLINK-4283,PAYLOAD,2022-11-14 16:43:12,15.08837605,0.0002015,53.219,120.4895,49.3295,310.7872,4.116e-05,3.67e-06,0.0,0 STARLINK-4283,1 53016U 22076AG  22318.69666826  .00000367  00000-0  41160-4 0  9999,2 53016  53.2190 120.4895 0002015  49.3295 310.7872 15.08837605 20166,6917.888000000001,95.438,541.1469999999998,538.359,0.0
53016.0,STARLINK-4283,PAYLOAD,2022-11-14 19:53:58,15.0883846,0.0001999,53.2186,119.8931,45.7863,314.3294,3.7868e-05,3.15e-06,0.0,0 STARLINK-4283,1 53016U 22076AG  22318.82914807  .00000315  00000-0  37868-4 0  9992,2 53016  53.2186 119.8931 0001999  45.7863 314.3294 15.08838460 20657,6917.885,95.438,541.133,538.367,0.0
53016.0,STARLINK-4283,PAYLOAD,2022-11-15 11:47:49,15.08835104,0.0002019,53.2188,116.9194,44.9269,315.1886,9.0394e-05,1.151e-05,0.0,0 STARLINK-4283,1 53016U 22076AG  22319.49154800  .00001151  00000-0  90394-4 0  9997,2 53016  53.2188 116.9194 0002019  44.9269 315.1886 15.08835104 20280,6917.895,95.438,541.1569999999998,538.364,0.0
53016.0,STARLINK-4283,PAYLOAD,2022-11-15 18:09:22,15.08829621,0.0002013,53.2188,115.7299,44.0519,316.0633,3.7554e-05,3.09e-06,0.0,0 STARLINK-4283,1 53016U 22076AG  22319.75651486  .00000309  00000-0  37554-4 0  9991,2 53016  53.2188 115.7299 0002013  44.0519 316.0633 15.08829621 20799,6917.9119999999975,95.438,541.17,538.385,0.0
53016.0,STARLINK-4283,PAYLOAD,2022-11-16 03:41:41,15.08831175,0.0002017,53.2191,113.9461,45.0957,315.0198,3.9086e-05,3.34e-06,0.0,0 STARLINK-4283,1 53016U 22076AG  22320.15395589  .00000334  00000-0  39086-4 0  9996,2 53016  53.2191 113.9461 0002017  45.0957 315.0198 15.08831175 20382,6917.906999999997,95.438,541.168,538.377,0.0
53016.0,STARLINK-4283,PAYLOAD,2022-11-16 18:00:09,15.08836704,0.0001967,53.2184,111.2699,43.6543,316.4605,8.349800000000001e-06,-1.55e-06,0.0,0 STARLINK-4283,1 53016U 22076AG  22320.75011461 -.00000155  00000-0  83498-5 0  9995,2 53016  53.2184 111.2699 0001967  43.6543 316.4605 15.08836704 20477,6917.89,95.438,541.116,538.395,0.0
53016.0,STARLINK-4283,PAYLOAD,2022-11-17 09:54:02,15.08827593,0.0002058,53.2193,108.2961,43.7661,316.3494,-4.0852e-05,-9.38e-06,0.0,0 STARLINK-4283,1 53016U 22076AG  22321.41252692 -.00000938  00000-0 -40852-4 0  9998,2 53016  53.2193 108.2961 0002058  43.7661 316.3494 15.08827593 21044,6917.918000000002,95.438,541.207,538.36,0.0
53016.0,STARLINK-4283,PAYLOAD,2022-11-17 16:15:33,15.0885063,0.0002625,53.218,107.109,53.2109,306.9124,2.9695e-05,1.84e-06,0.0,0 STARLINK-4283,1 53016U 22076AG  22321.67747148  .00000184  00000-0  29695-4 0  9994,2 53016  53.2180 107.1090 0002625  53.2109 306.9124 15.08850630 21081,6917.848000000001,95.437,541.529,537.8969999999998,0.0
53016.0,STARLINK-4283,PAYLOAD,2022-11-18 09:44:47,15.08847117,0.000204,53.2194,103.8363,48.5268,311.5899,0.00010684,1.413e-05,0.0,0 STARLINK-4283,1 53016U 22076AG  22322.40610823  .00001413  00000-0  10684-3 0  9998,2 53016  53.2194 103.8363 0002040  48.5268 311.5899 15.08847117 20723,6917.859,95.437,541.135,538.312,0.0
53016.0,STARLINK-4283,PAYLOAD,2022-11-18 19:17:06,15.08842881,0.0002098,53.2205,102.0525,51.5941,308.5239,4.724e-05,4.64e-06,0.0,0 STARLINK-4283,1 53016U 22076AG  22322.80355276  .00000464  00000-0  47240-4 0  9994,2 53016  53.2205 102.0525 0002098  51.5941 308.5239 15.08842881 20785,6917.871999999999,95.437,541.188,538.285,0.0
53016.0,STARLINK-4283,PAYLOAD,2022-11-19 09:35:35,15.08842145,0.0002096,53.22,99.3768,46.3539,313.7626,0.00011343,1.518e-05,0.0,0 STARLINK-4283,1 53016U 22076AG  22323.39971167  .00001518  00000-0  11343-3 0  9997,2 53016  53.2200  99.3768 0002096  46.3539 313.7626 15.08842145 20871,6917.874,95.437,541.189,538.289,0.0
53016.0,STARLINK-4283,PAYLOAD,2022-11-19 15:57:08,15.0883643,0.0002118,53.2197,98.1875,42.8134,317.3023,4.5472e-05,4.35e-06,0.0,0 STARLINK-4283,1 53016U 22076AG  22323.66467695  .00000435  00000-0  45472-4 0  9991,2 53016  53.2197  98.1875 0002118  42.8134 317.3023 15.08836430 21387,6917.891,95.438,541.222,538.2909999999998,0.0
53016.0,STARLINK-4283,PAYLOAD,2022-11-19 19:07:54,15.08842873,0.0002128,53.22,97.593,44.1487,315.9675,-4.361100000000001e-05,-9.82e-06,0.0,0 STARLINK-4283,1 53016U 22076AG  22323.79715497 -.00000982  00000-0 -43611-4 0  9993,2 53016  53.2200  97.5930 0002128  44.1487 315.9675 15.08842873 20939,6917.871999999999,95.437,541.2090000000002,538.264,0.0
53016.0,STARLINK-4283,PAYLOAD,2022-11-20 12:37:09,15.08824111,0.0001982,53.2193,94.3209,37.1247,322.9882,-0.00013133,-2.377e-05,0.0,0 STARLINK-4283,1 53016U 22076AG  22324.52580979 -.00002377  00000-0 -13133-3 0  9995,2 53016  53.2193  94.3209 0001982  37.1247 322.9882 15.08824111 21043,6917.929,95.439,541.165,538.423,0.0
53016.0,STARLINK-4283,PAYLOAD,2022-11-20 15:47:56,15.08823944,0.0001925,53.2209,93.7269,48.8582,311.2576,-0.00011528,-2.122e-05,0.0,0 STARLINK-4283,1 53016U 22076AG  22324.65829047 -.00002122  00000-0 -11528-3 0  9995,2 53016  53.2209  93.7269 0001925  48.8582 311.2576 15.08823944 21536,6917.929,95.439,541.126,538.4630000000002,0.0
53016.0,STARLINK-4283,PAYLOAD,2022-11-21 09:17:10,15.08825108,0.00021,53.2192,90.4554,37.0883,323.0254,-2.1937e-05,-6.37e-06,0.0,0 STARLINK-4283,1 53016U 22076AG  22325.38693228 -.00000637  00000-0 -21937-4 0  9991,2 53016  53.2192  90.4554 0002100  37.0883 323.0254 15.08825108 21648,6917.926,95.438,541.244,538.3380000000002,0.0
53016.0,STARLINK-4283,PAYLOAD,2022-11-21 15:38:43,15.08831059,0.0002079,53.2197,89.2663,39.8552,320.2593,2.8483e-05,1.65e-06,0.0,0 STARLINK-4283,1 53016U 22076AG  22325.65188906  .00000165  00000-0  28483-4 0  9990,2 53016  53.2197  89.2663 0002079  39.8552 320.2593 15.08831059 21689,6917.908,95.438,541.211,538.3340000000002,0.0
53016.0,STARLINK-4283,PAYLOAD,2022-11-22 09:07:57,15.08834041,0.0002096,53.22,85.9957,37.9712,322.1428,0.00019075,2.748e-05,0.0,0 STARLINK-4283,1 53016U 22076AG  22326.38052503  .00002748  00000-0  19075-3 0  9999,2 53016  53.2200  85.9957 0002096  37.9712 322.1428 15.08834041 21793,6917.899,95.438,541.214,538.314,0.0
53016.0,STARLINK-4283,PAYLOAD,2022-11-22 13:54:06,15.08837888,0.0002087,53.2201,85.1037,40.054,320.0605,0.00022626,3.314e-05,0.0,0 STARLINK-4283,1 53016U 22076AG  22326.57924244  .00003314  00000-0  22626-3 0  9996,2 53016  53.2201  85.1037 0002087  40.0540 320.0605 15.08837888 21357,6917.887,95.438,541.196,538.308,0.0
53016.0,STARLINK-4283,PAYLOAD,2022-11-22 15:29:29,15.08839186,0.00021,53.2201,84.8064,39.8226,320.2920000000001,0.00023484,3.451e-05,0.0,0 STARLINK-4283,1 53016U 22076AG  22326.64548189  .00003451  00000-0  23484-3 0  9999,2 53016  53.2201  84.8064 0002100  39.8226 320.2920 15.08839186 21362,6917.8830000000025,95.438,541.201,538.295,0.0
53016.0,STARLINK-4283,PAYLOAD,2022-11-23 07:23:20,15.08845227,0.0002105,53.2204,81.8334,42.7214,317.3941,0.00015738,2.218e-05,0.0,0 STARLINK-4283,1 53016U 22076AG  22327.30788061  .00002218  00000-0  15738-3 0  9991,2 53016  53.2204  81.8334 0002105  42.7214 317.3941 15.08845227 21933,6917.864000000001,95.437,541.186,538.273,0.0
53016.0,STARLINK-4283,PAYLOAD,2022-11-24 07:14:07,15.08848394,0.0002317,53.2199,77.3726,40.3321,319.7843,-2.4125e-05,-6.72e-06,0.0,0 STARLINK-4283,1 53016U 22076AG  22328.30148112 -.00000672  00000-0 -24125-4 0  9994,2 53016  53.2199  77.3726 0002317  40.3321 319.7843 15.08848394 21619,6917.855,95.437,541.323,538.117,0.0
53016.0,STARLINK-4283,PAYLOAD,2022-11-24 13:35:40,15.08846789,0.0002309,53.2199,76.1832,40.2679,319.8484,-3.781e-05,-8.900000000000001e-06,0.0,0 STARLINK-4283,1 53016U 22076AG  22328.56644093 -.00000890  00000-0 -37810-4 0  9998,2 53016  53.2199  76.1832 0002309  40.2679 319.8484 15.08846789 22125,6917.86,95.437,541.322,538.127,0.0
53016.0,STARLINK-4283,PAYLOAD,2022-11-25 10:15:41,15.08806776,0.0002603,53.219,72.317,51.4764,308.6462,0.00051184,7.859999999999999e-05,0.0,0 STARLINK-4283,1 53016U 22076AG  22329.42756035  .00007860  00000-0  51184-3 0  9995,2 53016  53.2190  72.3170 0002603  51.4764 308.6462 15.08806776 22253,6917.982,95.44,541.648,538.0459999999998,0.0
